{
    "links": {
        "self": "http://www.neowsapp.com/rest/v1/neo/3873196?api_key=iIulBulltgU6a56xZRHN4H3l9WmuAYTsLGpBGhQ2"
    },
    "id": "3873196",
    "neo_reference_id": "3873196",
    "name": "(2019 TF)",
    "designation": "2019 TF",
    "nasa_jpl_url": "http://ssd.jpl.nasa.gov/sbdb.cgi?sstr=3873196",
    "absolute_magnitude_h": 27.6,
    "estimated_diameter": {
        "kilometers": {
            "estimated_diameter_min": 0.0080270317,
            "estimated_diameter_max": 0.0179489885
        },
        "meters": {
            "estimated_diameter_min": 8.0270316728,
            "estimated_diameter_max": 17.948988478
        },
        "miles": {
            "estimated_diameter_min": 0.0049877647,
            "estimated_diameter_max": 0.0111529809
        },
        "feet": {
            "estimated_diameter_min": 26.3354065935,
            "estimated_diameter_max": 58.8877593581
        }
    },
    "is_potentially_hazardous_asteroid": false,
    "close_approach_data": [
        {
            "close_approach_date": "2019-09-29",
            "close_approach_date_full": "2019-Sep-29 21:19",
            "epoch_date_close_approach": 1569791940000,
            "relative_velocity": {
                "kilometers_per_second": "10.0267562571",
                "kilometers_per_hour": "36096.3225254167",
                "miles_per_hour": "22428.851071418"
            },
            "miss_distance": {
                "astronomical": "0.0460161546",
                "lunar": "17.9002841394",
                "kilometers": "6883918.713750702",
                "miles": "4277468.7398636076"
            },
            "orbiting_body": "Earth"
        }
    ],
    "orbital_data": {
        "orbit_id": "1",
        "orbit_determination_date": "2019-10-02 06:42:05",
        "first_observation_date": "2019-10-01",
        "last_observation_date": "2019-10-02",
        "data_arc_in_days": 1,
        "observations_used": 9,
        "orbit_uncertainty": "8",
        "minimum_orbit_intersection": ".0459656",
        "jupiter_tisserand_invariant": "5.031",
        "epoch_osculation": "2458758.5",
        "eccentricity": ".1735801875257388",
        "semi_major_axis": "1.266168291192347",
        "inclination": "18.43282061224341",
        "ascending_node_longitude": "6.950349179152018",
        "orbital_period": "520.3979495659474",
        "perihelion_distance": "1.046386561768035",
        "perihelion_argument": "352.3026279092015",
        "aphelion_distance": "1.485950020616659",
        "perihelion_time": "2458749.572542573079",
        "mean_anomaly": "6.175821169880073",
        "mean_motion": ".6917782829472486",
        "equinox": "J2000",
        "orbit_class": {
            "orbit_class_type": "AMO",
            "orbit_class_description": "Near-Earth asteroid orbits similar to that of 1221 Amor",
            "orbit_class_range": "1.017 AU < q (perihelion) < 1.3 AU"
        }
    },
    "is_sentry_object": false
}